FENGYUN 1C DEB          
1 38784U 99025ETY 17342.53614764  .00001843  00000-0  37325-3 0  9997
2 38784  99.4103  85.1375 0078096 205.0342 220.7800 14.60908435331010
